QIANFAN-97              
1 66039U 25233G   25317.07374259  .00001345  00000+0  56625-3 0  9993
2 66039  88.9994  65.4347 0016400 138.6772 221.5666 14.25186502  3811
QIANFAN-98              
1 66040U 25233H   25317.14317118  .00001515  00000+0  62594-3 0  9995
2 66040  88.9959  65.4377 0015913 128.7646 231.4972 14.26203379  3829
QIANFAN-99              
1 66041U 25233J   25316.44134658  .00001397  00000+0  57660-3 0  9990
2 66041  88.9957  65.5182 0015998 129.9129 230.3474 14.26216369  3722
QIANFAN-100             
1 66042U 25233K   25317.14278719  .00001513  00000+0  62455-3 0  9994
2 66042  88.9958  65.4377 0016517 129.4255 230.8403 14.26234361  3822
QIANFAN-101             
1 66043U 25233L   25317.13794038  .00000751  00000+0  30441-3 0  9994
2 66043  88.9959  65.4369 0016546 127.6125 232.6574 14.26645481  3821
QIANFAN-102             
1 66044U 25233M   25317.07249670  .00001540  00000+0  63597-3 0  9990
2 66044  88.9958  65.4455 0016877 129.6722 230.5963 14.26238930  3814
QIANFAN-103             
1 66045U 25233N   25317.00223137  .00001213  00000+0  51128-3 0  9998
2 66045  88.9881  65.4680 0017553 139.0800 221.1714 14.25033244  3803
QIANFAN-104             
1 66046U 25233P   25317.00154250  .00001537  00000+0  63410-3 0  9994
2 66046  88.9958  65.4537 0016252 130.9489 229.3114 14.26288685  3804
