<?xml version="1.0" encoding="UTF-8"?>
<ndm xmlns:xsi="http://www.w3.org/2001/XMLSchema-instance" xsi:noNamespaceSchemaLocation="https://sanaregistry.org/r/ndmxml_unqualified/ndmxml-2.0.0-master-2.0.xsd">
<omm id="CCSDS_OMM_VERS" version="2.0">
<header><CREATION_DATE/><ORIGINATOR/></header><body><segment><metadata><OBJECT_NAME>QIANFAN-97</OBJECT_NAME><OBJECT_ID>2025-233G</OBJECT_ID><CENTER_NAME>EARTH</CENTER_NAME><REF_FRAME>TEME</REF_FRAME><TIME_SYSTEM>UTC</TIME_SYSTEM><MEAN_ELEMENT_THEORY>SGP4</MEAN_ELEMENT_THEORY></metadata><data><meanElements><EPOCH>2025-11-13T01:46:11.359776</EPOCH><MEAN_MOTION>14.25186502</MEAN_MOTION><ECCENTRICITY>.00164</ECCENTRICITY><INCLINATION>88.9994</INCLINATION><RA_OF_ASC_NODE>65.4347</RA_OF_ASC_NODE><ARG_OF_PERICENTER>138.6772</ARG_OF_PERICENTER><MEAN_ANOMALY>221.5666</MEAN_ANOMALY></meanElements><tleParameters><EPHEMERIS_TYPE>0</EPHEMERIS_TYPE><CLASSIFICATION_TYPE>U</CLASSIFICATION_TYPE><NORAD_CAT_ID>66039</NORAD_CAT_ID><ELEMENT_SET_NO>999</ELEMENT_SET_NO><REV_AT_EPOCH>381</REV_AT_EPOCH><BSTAR>.56625E-3</BSTAR><MEAN_MOTION_DOT>.1345E-4</MEAN_MOTION_DOT><MEAN_MOTION_DDOT>0</MEAN_MOTION_DDOT></tleParameters></data></segment></body></omm>
<omm id="CCSDS_OMM_VERS" version="2.0">
<header><CREATION_DATE/><ORIGINATOR/></header><body><segment><metadata><OBJECT_NAME>QIANFAN-98</OBJECT_NAME><OBJECT_ID>2025-233H</OBJECT_ID><CENTER_NAME>EARTH</CENTER_NAME><REF_FRAME>TEME</REF_FRAME><TIME_SYSTEM>UTC</TIME_SYSTEM><MEAN_ELEMENT_THEORY>SGP4</MEAN_ELEMENT_THEORY></metadata><data><meanElements><EPOCH>2025-11-13T03:26:09.989952</EPOCH><MEAN_MOTION>14.26203379</MEAN_MOTION><ECCENTRICITY>.0015913</ECCENTRICITY><INCLINATION>88.9959</INCLINATION><RA_OF_ASC_NODE>65.4377</RA_OF_ASC_NODE><ARG_OF_PERICENTER>128.7646</ARG_OF_PERICENTER><MEAN_ANOMALY>231.4972</MEAN_ANOMALY></meanElements><tleParameters><EPHEMERIS_TYPE>0</EPHEMERIS_TYPE><CLASSIFICATION_TYPE>U</CLASSIFICATION_TYPE><NORAD_CAT_ID>66040</NORAD_CAT_ID><ELEMENT_SET_NO>999</ELEMENT_SET_NO><REV_AT_EPOCH>382</REV_AT_EPOCH><BSTAR>.62594E-3</BSTAR><MEAN_MOTION_DOT>.1515E-4</MEAN_MOTION_DOT><MEAN_MOTION_DDOT>0</MEAN_MOTION_DDOT></tleParameters></data></segment></body></omm>
<omm id="CCSDS_OMM_VERS" version="2.0">
<header><CREATION_DATE/><ORIGINATOR/></header><body><segment><metadata><OBJECT_NAME>QIANFAN-99</OBJECT_NAME><OBJECT_ID>2025-233J</OBJECT_ID><CENTER_NAME>EARTH</CENTER_NAME><REF_FRAME>TEME</REF_FRAME><TIME_SYSTEM>UTC</TIME_SYSTEM><MEAN_ELEMENT_THEORY>SGP4</MEAN_ELEMENT_THEORY></metadata><data><meanElements><EPOCH>2025-11-12T10:35:32.344512</EPOCH><MEAN_MOTION>14.26216369</MEAN_MOTION><ECCENTRICITY>.0015998</ECCENTRICITY><INCLINATION>88.9957</INCLINATION><RA_OF_ASC_NODE>65.5182</RA_OF_ASC_NODE><ARG_OF_PERICENTER>129.9129</ARG_OF_PERICENTER><MEAN_ANOMALY>230.3474</MEAN_ANOMALY></meanElements><tleParameters><EPHEMERIS_TYPE>0</EPHEMERIS_TYPE><CLASSIFICATION_TYPE>U</CLASSIFICATION_TYPE><NORAD_CAT_ID>66041</NORAD_CAT_ID><ELEMENT_SET_NO>999</ELEMENT_SET_NO><REV_AT_EPOCH>372</REV_AT_EPOCH><BSTAR>.57659727E-3</BSTAR><MEAN_MOTION_DOT>.1397E-4</MEAN_MOTION_DOT><MEAN_MOTION_DDOT>0</MEAN_MOTION_DDOT></tleParameters></data></segment></body></omm>
<omm id="CCSDS_OMM_VERS" version="2.0">
<header><CREATION_DATE/><ORIGINATOR/></header><body><segment><metadata><OBJECT_NAME>QIANFAN-100</OBJECT_NAME><OBJECT_ID>2025-233K</OBJECT_ID><CENTER_NAME>EARTH</CENTER_NAME><REF_FRAME>TEME</REF_FRAME><TIME_SYSTEM>UTC</TIME_SYSTEM><MEAN_ELEMENT_THEORY>SGP4</MEAN_ELEMENT_THEORY></metadata><data><meanElements><EPOCH>2025-11-13T03:25:36.813216</EPOCH><MEAN_MOTION>14.26234361</MEAN_MOTION><ECCENTRICITY>.0016517</ECCENTRICITY><INCLINATION>88.9958</INCLINATION><RA_OF_ASC_NODE>65.4377</RA_OF_ASC_NODE><ARG_OF_PERICENTER>129.4255</ARG_OF_PERICENTER><MEAN_ANOMALY>230.8403</MEAN_ANOMALY></meanElements><tleParameters><EPHEMERIS_TYPE>0</EPHEMERIS_TYPE><CLASSIFICATION_TYPE>U</CLASSIFICATION_TYPE><NORAD_CAT_ID>66042</NORAD_CAT_ID><ELEMENT_SET_NO>999</ELEMENT_SET_NO><REV_AT_EPOCH>382</REV_AT_EPOCH><BSTAR>.62455E-3</BSTAR><MEAN_MOTION_DOT>.1513E-4</MEAN_MOTION_DOT><MEAN_MOTION_DDOT>0</MEAN_MOTION_DDOT></tleParameters></data></segment></body></omm>
<omm id="CCSDS_OMM_VERS" version="2.0">
<header><CREATION_DATE/><ORIGINATOR/></header><body><segment><metadata><OBJECT_NAME>QIANFAN-101</OBJECT_NAME><OBJECT_ID>2025-233L</OBJECT_ID><CENTER_NAME>EARTH</CENTER_NAME><REF_FRAME>TEME</REF_FRAME><TIME_SYSTEM>UTC</TIME_SYSTEM><MEAN_ELEMENT_THEORY>SGP4</MEAN_ELEMENT_THEORY></metadata><data><meanElements><EPOCH>2025-11-13T03:18:38.048832</EPOCH><MEAN_MOTION>14.26645481</MEAN_MOTION><ECCENTRICITY>.0016546</ECCENTRICITY><INCLINATION>88.9959</INCLINATION><RA_OF_ASC_NODE>65.4369</RA_OF_ASC_NODE><ARG_OF_PERICENTER>127.6125</ARG_OF_PERICENTER><MEAN_ANOMALY>232.6574</MEAN_ANOMALY></meanElements><tleParameters><EPHEMERIS_TYPE>0</EPHEMERIS_TYPE><CLASSIFICATION_TYPE>U</CLASSIFICATION_TYPE><NORAD_CAT_ID>66043</NORAD_CAT_ID><ELEMENT_SET_NO>999</ELEMENT_SET_NO><REV_AT_EPOCH>382</REV_AT_EPOCH><BSTAR>.30441E-3</BSTAR><MEAN_MOTION_DOT>.751E-5</MEAN_MOTION_DOT><MEAN_MOTION_DDOT>0</MEAN_MOTION_DDOT></tleParameters></data></segment></body></omm>
<omm id="CCSDS_OMM_VERS" version="2.0">
<header><CREATION_DATE/><ORIGINATOR/></header><body><segment><metadata><OBJECT_NAME>QIANFAN-102</OBJECT_NAME><OBJECT_ID>2025-233M</OBJECT_ID><CENTER_NAME>EARTH</CENTER_NAME><REF_FRAME>TEME</REF_FRAME><TIME_SYSTEM>UTC</TIME_SYSTEM><MEAN_ELEMENT_THEORY>SGP4</MEAN_ELEMENT_THEORY></metadata><data><meanElements><EPOCH>2025-11-13T01:44:23.714880</EPOCH><MEAN_MOTION>14.26238930</MEAN_MOTION><ECCENTRICITY>.0016877</ECCENTRICITY><INCLINATION>88.9958</INCLINATION><RA_OF_ASC_NODE>65.4455</RA_OF_ASC_NODE><ARG_OF_PERICENTER>129.6722</ARG_OF_PERICENTER><MEAN_ANOMALY>230.5963</MEAN_ANOMALY></meanElements><tleParameters><EPHEMERIS_TYPE>0</EPHEMERIS_TYPE><CLASSIFICATION_TYPE>U</CLASSIFICATION_TYPE><NORAD_CAT_ID>66044</NORAD_CAT_ID><ELEMENT_SET_NO>999</ELEMENT_SET_NO><REV_AT_EPOCH>381</REV_AT_EPOCH><BSTAR>.63597E-3</BSTAR><MEAN_MOTION_DOT>.154E-4</MEAN_MOTION_DOT><MEAN_MOTION_DDOT>0</MEAN_MOTION_DDOT></tleParameters></data></segment></body></omm>
<omm id="CCSDS_OMM_VERS" version="2.0">
<header><CREATION_DATE/><ORIGINATOR/></header><body><segment><metadata><OBJECT_NAME>QIANFAN-103</OBJECT_NAME><OBJECT_ID>2025-233N</OBJECT_ID><CENTER_NAME>EARTH</CENTER_NAME><REF_FRAME>TEME</REF_FRAME><TIME_SYSTEM>UTC</TIME_SYSTEM><MEAN_ELEMENT_THEORY>SGP4</MEAN_ELEMENT_THEORY></metadata><data><meanElements><EPOCH>2025-11-13T00:03:12.790368</EPOCH><MEAN_MOTION>14.25033244</MEAN_MOTION><ECCENTRICITY>.0017553</ECCENTRICITY><INCLINATION>88.9881</INCLINATION><RA_OF_ASC_NODE>65.4680</RA_OF_ASC_NODE><ARG_OF_PERICENTER>139.0800</ARG_OF_PERICENTER><MEAN_ANOMALY>221.1714</MEAN_ANOMALY></meanElements><tleParameters><EPHEMERIS_TYPE>0</EPHEMERIS_TYPE><CLASSIFICATION_TYPE>U</CLASSIFICATION_TYPE><NORAD_CAT_ID>66045</NORAD_CAT_ID><ELEMENT_SET_NO>999</ELEMENT_SET_NO><REV_AT_EPOCH>380</REV_AT_EPOCH><BSTAR>.51128E-3</BSTAR><MEAN_MOTION_DOT>.1213E-4</MEAN_MOTION_DOT><MEAN_MOTION_DDOT>0</MEAN_MOTION_DDOT></tleParameters></data></segment></body></omm>
<omm id="CCSDS_OMM_VERS" version="2.0">
<header><CREATION_DATE/><ORIGINATOR/></header><body><segment><metadata><OBJECT_NAME>QIANFAN-104</OBJECT_NAME><OBJECT_ID>2025-233P</OBJECT_ID><CENTER_NAME>EARTH</CENTER_NAME><REF_FRAME>TEME</REF_FRAME><TIME_SYSTEM>UTC</TIME_SYSTEM><MEAN_ELEMENT_THEORY>SGP4</MEAN_ELEMENT_THEORY></metadata><data><meanElements><EPOCH>2025-11-13T00:02:13.272000</EPOCH><MEAN_MOTION>14.26288685</MEAN_MOTION><ECCENTRICITY>.0016252</ECCENTRICITY><INCLINATION>88.9958</INCLINATION><RA_OF_ASC_NODE>65.4537</RA_OF_ASC_NODE><ARG_OF_PERICENTER>130.9489</ARG_OF_PERICENTER><MEAN_ANOMALY>229.3114</MEAN_ANOMALY></meanElements><tleParameters><EPHEMERIS_TYPE>0</EPHEMERIS_TYPE><CLASSIFICATION_TYPE>U</CLASSIFICATION_TYPE><NORAD_CAT_ID>66046</NORAD_CAT_ID><ELEMENT_SET_NO>999</ELEMENT_SET_NO><REV_AT_EPOCH>380</REV_AT_EPOCH><BSTAR>.6341E-3</BSTAR><MEAN_MOTION_DOT>.1537E-4</MEAN_MOTION_DOT><MEAN_MOTION_DDOT>0</MEAN_MOTION_DDOT></tleParameters></data></segment></body></omm>

</ndm>
